SN,HOSPITAL NAME,ADDRESS,CITY,STATE,PINCODE
1,"AAKASH EYE AND GENRAL
HOSPITAL","A-116 ARJUN PARK(NEAR NANGLI DAIRY
NEW DELHI",New Delhi,Delhi,110043
2,AAKASH HEALTHCARE,"hospital plot, road no-201, sector-3, dwarka, new
delhi-110075",New Delhi,Delhi,110075
3,Aakash Hospital,"90/43, Malviya Nagar",New Delhi,Delhi,110017
4,Aar Pee Hospitals,"1276, Sector-28",Faridabad,Haryana,121002
5,Aarogya Hospital,"32, Chitra Vihar",New Delhi,Delhi,110092
6,Aarogya Hospital GZB,"Plot No. NH-1, Sec-VI Vaishali, Ghaziabad",Ghaziabad,Uttar Pradesh,201010
7,AASHIRWAD NURSING HOME HEART AND DIABETES CENTER,A 29/3 LIONS ENCLAVE VIKAS NAGAR UTTAM NAGAR DELHI,New Delhi,Delhi,110059
8,AASHLOK HOSPITAL DELHI,"25/A, Block-AB, Community Centre, Safdarjung Enclave ",New Delhi,Delhi,110029
9,Aastha Eye Centre,"5R/5,Near Neelam Petrol Pump, N.I.T-Faridabad",Faridabad,Haryana,121001
10,AASTHA HOSPITAL,L2/50 MAHAVIR  NAGAR,New Delhi,Delhi,110018
11,AASTHA HOSPITAL FBD,"SEF-2 ASHOKA ENCLAVE MAIN SEC-35
FBD",Faridabad,Haryana,121003
12,ACCORD SUPERSPECIALITY HOSPITAL,"Sector 86, Greater Faridabad Faridabad",Faridabad,Haryana,121005
13,Action Cancer Hospital,"H-2/FC-34,A-4,PASCHIM,NEW DELHI",New Delhi,Delhi,110063
14,"AGARWAL HOSPITAL
DELHI BORN CENTRE","B 1 Rohit Kunj Pitampura New Delhi , Anandvas
Shakurpur",New Delhi,Delhi,110034
15,Agrawal Eye Institute,"A - 235,Shivalik,Malviya Nagar",New Delhi,Delhi,110017
16,Ahooja Eye and Dental Institute,"560/1,Daya Nand Colony,New Railway Road",Gurugram,Haryana,122001
17,AHUJA EYE CENTRE,"AG-11, Shalimar Bagh, Main Ring Road, Delhi-
110088",New Delhi,Delhi,110088
18,Ahuja Laser Eye Centre,"212, Parmanand Colony, Main Road, Mukherjee Nagar Delhi Delhi-110009",New Delhi,Delhi,110009
19,AIRMID HOSPITAL,"PROPERTY NO-3, NARAIN MARKET
SAMAYPUR",New Delhi,Delhi,110042
20,ALFAA HEALTH CARE,"Main Farrukh Nagar Road, Basai Village, cenara Bank , Basai",Gurugram,Haryana,122006
21,Amar Leela Hospital Pvt. Ltd,B - 1/6  Janak Puri,New Delhi,Delhi,110058
22,Amicare Hospital Pvt Ltd,"Plot No.15/16,Nyay Khand-I,Near Indira Puram Public School,Indirapuram,Ghaziabad-201014",Ghaziabad,Uttar Pradesh,201014
23,AMIT NURSING HOME,"A-3, Manak Vihar Ext. Near Beriwala Bagh,Tihar,New Delhi",New Delhi,Delhi,110018
24,ANAND HOSPITAL AND CHHIDDA SINGH YADAV TRAUMA CENTRE,LAL KAUN NEAR RELIANCE PETEOL PUMP,Ghaziabad,Uttar Pradesh,201001
25,"ANKUR CLINIC AND
MATERNITY HOME","439, Ward No- 21, Basai Road Manohar Nagar",Gurugram,Haryana,122001
26,APEX CITI HOSPITAL,"D-440, WEST VINOD NAGAR, I.P. EXTENSION NEAR MADHU VIHAR THANA",New Delhi,Delhi,110091
27,"APEX MULTISPECIALITY
AND LAPAROSCOPY HOSPITAL","3C-79,B.P.N.I.T FARIDABAD",Faridabad,Haryana,121003
28,"APOLLO CRADLE AND
CHILDREN HOSPITAL","NH 1 SHAKTI KHAND 2 INDIRAPURAM
GHAZIABAD",Ghaziabad,Uttar Pradesh,201014
29,APOLLO CRADLE AND CHILDREN HOSPITAL AND APOLLO SPECTRA HOSPITAL,POKT-7 OPP MITRA SOCIETY GRETER NOIDA,Noida,Uttar Pradesh,201308
30,APOLLO CRADLE MOTINAGAR,"A-15 Shivaji Marg,Najafgarh Road Near Motinagar Metro Station ",New Delhi,Delhi,110015
31,Apollo Cradle Royale,"R-2, Nehru Enclave, Near Nehru Place Flyover,",New Delhi,Delhi,110019
32,"Apollo Spectra Hospitals
Kailash Colony","A-19/A, Kailash Colony Near Metro Station",New Delhi,Delhi,110019
33,"Apollo Spectra Hospitals  Karol
Bagh","66A/2,New Rohtak Road Karol Bagh, New Delhi-
110005",New Delhi,Delhi,110005
34,APURVA HOSPITAL FARIDABAD,"2N/74,BP NEAR 2-3 GOLE CHAKKAR NIT FARIDABAD",Faridabad,Haryana,121001
35,ARSH HOSPITAL,"OPPOSITE ERA REDWOOD RESIDENCY, TIGAON ROAD,SECTOR 78",Faridabad,Haryana,121002
36,Artemis Medicare Services Ltd.,Sector- 51,Gurugram,Haryana,122001
37,Aryan Hospital Pvt. Ltd.,Old Railway Road,Gurugram,Haryana,122001
38,ASHA HOSPITAL,"Phase-II, Vikas Nagar, Uttam Nagar Rajan Enclave, Hastsal",New Delhi,Delhi,110059
39,"ASIAN FIDELIS MULTI
SPECIALITY HOSPITAL","RPS SAVANA,RPS CITY,SECTOR-
88,FARIDABAD-121002.",Faridabad,Haryana,121002
40,"Asian Institute of Medical
Sciences FBD","Badkhal Flyover Road, Sector 21-A, Faridabad,
Haryana 121001",Faridabad,Haryana,121003
41,ASIAZ HOSPITAL,PLOT 140 SEC 15 PART 2 MEAR MOTHER DAIRY,Gurugram,Haryana,122001
42,Astha Hospital,"NH-05, Block - I, Sector Alpha - 2, Greater Noida",Noida,Uttar Pradesh,201306
43,ATLANTA MEDIWORLD MULTISPECIALITY HOSPITAL and RESEARCH CENTRE (UNIT OF R R M SERVICES),"Plot No-Nh-01, Sector-14, Atal Chowk Vasundhara",Ghaziabad,Uttar Pradesh,201012
44,Avantika Hospital-Ghaziabad,"137, Niti Khand- Ii Indira Puram",Ghaziabad,Uttar Pradesh,201001
45,"AVANTIKA MULTI
SPECIALITY HOSPITAL","A-3/8,Sector-3,Rohini,Delhi , Avantika , North
Delhi",New Delhi,Delhi,110085
46,Ayushman Hospital,"Plot No.2, Sector - 12,Dwarka",New Delhi,Delhi,110075
47,"AYUSHMAN HOSPITAL AND
HEALTH SERVICES","SEC-10, DWARKA",New Delhi,Delhi,110075
48,"Ayushman Hospital and Trauma
Centre",37 Mile stone Hero Honda Chowk,Gurugram,Haryana,122001
49,B L Kapur Memorial Hospital,"Building No-5, Pusa Road, Rajinder Nagar, New Delhi, Delhi 110005",New Delhi,Delhi,110005
50,B.M Gupta Nursing Home Pvt.Ltd.,"H-11-15 Arya Samaj Road,Uttam Nagar",New Delhi,Delhi,110059
51,Bajaj Eye Care Centre,"101, Vikas Surya Plaza, 7 D.D.A. Community
Centre Road No.44, Pitampura",New Delhi,Delhi,110034
52,"Balaji Medical and Diagnostic
Research Centre","108-A  I.P. Extension,Patparganj",New Delhi,Delhi,110091
53,Bali Nursing Home,"20 B/3, DB Gupta Road, Dev Nagar, Karol Bagh
, Delhi , Central Delhi , Delhi-110005",New Delhi,Delhi,110005
54,Ballabhgarh Nursing Home,"64-65  Mukesh Colony,Ballabhgarh",Faridabad,Haryana,121004
55,Banarsidas Chandiwala Institute Of Medical Sciences,"Chandiwala Estate, Maa Anandmai Ashram Marg, Kalkaji",New Delhi,Delhi,110019
56,BANSAL GLOBAL MULTI SPECIALITY  HOSPITAL,"C-10, RAMGARH COLONY, G.T.KARNAL ROAD, NEAR JAHANGIRPURI METRO
STATION",New Delhi,Delhi,110033
57,Bansal Hospital (A Unit Of Namedi Hospital Pvt. Ltd),"A-1, New Friends Colony",New Delhi,Delhi,110025
58,"Batra Hospital And  Medical
Research Centre","1, Tughlakabad Institutional Area",New Delhi,Delhi,110062
59,BH SALVAS HOSPITAL,"Plot no.- 6 & B6, Village Haibatpura, Chandan
Park, Jharoda Road, Najafgarh",New Delhi,Delhi,110072
60,Bhagat  Hospital,"D-2/48-49, Janakpuri",New Delhi,Delhi,110058
61,Bhagat Chandra Hospital,"RZ F-1/1,Mahavir Enclave,Dwarka",New Delhi,Delhi,110045
62,Bhagwan Mahavir Hospital,Sector 14 Near Madhuban Chowk Rohini Delhi- 110085,New Delhi,Delhi,110085
63,Bhagwati Hospital,"CS/OCF - 6, Sector-13, Rohini",New Delhi,Delhi,110085
64,Bhardwaj Hospital,"NH-1,Sec-29",Noida,Uttar Pradesh,201301
65,Bharti Eye Foundation,"1 - 3 East Patel Nagar ( Opposite Patel Nagar Metro Station) , Delhi , Central Delhi , Delhi-
110008",New Delhi,Delhi,110008
66,Bharti Eye Hospital,"E-52, G.K.-1, NEW DELHI",New Delhi,Delhi,110048
67,Bhatia Global Hospital (Bhatia Endosurgery Pvt. Ltd.),"307 and 308, Ambika Vihar",New Delhi,Delhi,110087
68,Bhatia Nursing Home,"Punjabi Mohalla,Near Gupta Hotel,Mohna",Ballabgarh,Haryana,121004
69,"Bhatia Orthopaedic And
Maternity Nursing Home.","390 Sector- 7B, Faridabad-121006",Faridabad,Haryana,121006
70,BRAHM SHAKTI HOSPITAL,"U-1/78, Budh Vihar, Phase - 1 Rohini",New Delhi,Delhi,110086
71,C M PATEL HOSPITAL,E-7 WEST JYOTI NAGAR EXTN 100 FOOT ROAD SHAHDRA NEW DELHI,New Delhi,Delhi,110094
72,C.K. Memorial Kapoor Hospital,"3B/8A,NIT 3,Near Dav College Road",Faridabad,Haryana,121001
73,"CARE N CURE MULTISPECIALITY
HOSPITAL","NH-1,Abhay Khand-III,Near Mother Dairy indirapuram Ghaziabad",Ghaziabad,Uttar Pradesh,201014
74,CD GLOBAL HOSPITAL,METRO PILLOR NO.492 MAIN ROHTAK ROAD MUNDKA,New Delhi,Delhi,151215
75,Central Hospital,"A  142,Ganesh Nagar,Near Tilak Nagar",New Delhi,Delhi,110018
76,Centre For Sight,"Plot No-399/1, New Railway Road, Gurgaon- 122009",Gurugram,Haryana,122009
77,Centre For Sight,"B-5/24,Safdarjung Enclave,Opp. Dear Park",New Delhi,Delhi,110029
78,Centre For Sight  Ashok Vihar,"B2/6, Ashok Vihar,Phase-2, Delhi-110052",New Delhi,Delhi,110052
79,Centre For Sight  Dwarka,"Centre For Sight Dwarka Plot No 9 Sector 9
Dwarka New Delhi 110077",New Delhi,Delhi,110077
80,Centre For Sight  Vikas Puri,"A3, Opp.Metro Pillar No.628, Najafgarh Road,
Vikas Puri,New Delhi-110018",New Delhi,Delhi,110018
81,Centre For Sight (Preet Vihar),"F-14, Opp. Metro Station Gate No. 2, Vikas Marg, Preet Vihar, New Delhi, Delhi 110092",New Delhi,Delhi,110092
82,Centre For Sight (Rohini),"304-309, Ring Road Mall, Sector-3,Rohini",New Delhi,Delhi,110085
83,Centre For Sight Faridabad,"PLot No-1, HUDA Market No-1, Beside
Hanuman Mandir,Sec-16A, Near Old Faridabad Metro Station-121001",Faridabad,Haryana,121001
84,Centre For Sight Gurgaon,"SCO Complex-317,Sector 29,Gurgaon-122016",Gurugram,Haryana,122016
85,CENTRE FOR SIGHT INDIRAPURAM,"C-6 GROUND FLOOR TOWER SAKTI KHAND-4, INDRAPURAM GHAZIABAD ",Ghaziabad,Uttar Pradesh,201014
86,Centre For Sight Rajouri Garden,"J-12/30, Rajouri Garden, New Delhi-110027",New Delhi,Delhi,110027
87,Chandna Medical Centre,"52 and 85,Sector - 18a,Near Subzi Mandi,Old",Faridabad,Haryana,121002
88,"CHANDRA LAXMI
HEALTHCARE","NH-03, GYAN KHAND-1, INDIRAPURAM
NEAR ST. THOMAS SCHOOL",Ghaziabad,Uttar Pradesh,201014
89,Chandra Laxmi Hospital Limited,"Sector - 4,Plot No.- 337, Vaishali",Ghaziabad,Uttar Pradesh,201010
90,Chaudhary Eye Centre And Laser Vision,"4802, Bharat Ram Road(Ansari Road),24,Darya Ganj-110002",New Delhi,Delhi,110002
91,"CHAUDHARY EYE CENTRE
AND LASER VISION","VPF 14,18,19, SHIPRA VISTA PLAZA,
AHINSA KHAND-I, INDIRAPURAM",Ghaziabad,Uttar Pradesh,201010
92,CHINMAYA VISION THE EYE HOSPITAL,"28-BHERA ENCLAVE,OUTER RING ROAD PASCHIM VIHAR NEW DELHI-110087",New Delhi,Delhi,110087
93,CHIRANJIVI HOSPITAL,Main Jharsa Road Opposite Sector 31 32,Gurugram,Haryana,122001
94,"Chopra Eye Hospital and Laser
Centre","House No.3,Pocket C-8,Sector-7,Rohini,Delhi",New Delhi,Delhi,110085
95,CHUGH HOSPITAL,"5L/164,K.C.ROAD,N.I.T,FARIDABAD-121001",Faridabad,Haryana,121001
96,CLIO EYE CARE,"308. S.S Plaza, Vikas Marg, Sector 47,",Gurugram,Haryana,122002
97,Cloudnine Gurgaon,"MSJ HOUSE PLOT NO. A-2,MAYFIELD GARDENS SEC-47,OPP. HILTON
HOTEL,GURGAON-122001 HARYANA",Gurugram,Haryana,122001
98,"CLOUDNINE KIDS CLINIC
INDIA",C-9 SEC-51 NOIDA GB NAGAR,Noida,Uttar Pradesh,201301
99,"CLOUDNINE KIDS CLINIC
INDIA PVT LTD","PLOT NO 94/4 GURUNANAK TOWER OPP
GOVT.GIRLS COLLAGE Sector -14",Gurugram,Haryana,122001
100,COMPLETE EYE CARE,"EROS CITY SQUARE,NEAR ROSE WOOD CITY,SECTOR 49",Gurugram,Haryana,110038
101,CRONUS MULTISPECIALITY,D 91MAIN 100 FEET ROAD NEAR,New Delhi,Delhi,110074
102,Cygnus MLS Hospital,Plot No 4 Main Kanjhawla road Near Balaji Mandir Rama Vihar Delhi-110081,New Delhi,Delhi,110081
103,DASHMESH HOSPITAL,"C-141, Shiv Nagar Ext.,Jail Road, New Delhi- 110058",New Delhi,Delhi,110053
104,DAYAL EYE CENTRE,"SCO NO 11 Friends Colony,Main Jharsa Road",Gurugram,Haryana,121001
105,DELHI EYE CARE,"4/17, 2nd Floor, Balraj Khanna Marg, Opp.",New Delhi,Delhi,110008
106,Delhi Eye Centre,"C-120, New Rajinder Nagar,Shankar Road",New Delhi,Delhi,110060
107,Delhi Heart And Lung Institute,"3-MM II, Panchkuian Road",New Delhi,Delhi,110055
108,DELHI HEART HOSPITAL,"176 Jagriti Enclave Bhartendu Harishchandra
Marg",New Delhi,Delhi,110092
109,"Delhi Hospital and Temple
Nursing Home","1, Ansari Road,Drya Ganj",New Delhi,Delhi,110002
110,Dev Eye Centre A Unit of Skiffle,"R - 10, Vakil Colony, Sector - 12, Pratap Vihar,",Ghaziabad,Uttar Pradesh,201009
111,DEV HOSPITAL,"NEAR GOVERNMENT SR.SEC. SCHOOL,
SECTOR 103, DAULTABAD",Gurugram,Haryana,122006
112,Dharamshila Cancer Hospital And Research Centre,"Dharamshila Marg, Vasundhara Enclave",New Delhi,Delhi,110096
113,DHARAMVEER SOLANKI HOSPITAL,"B-2, LAKHIRAM PARK, 100 FEET ROAD, OPP. SEC-22 ROHINI, DELHI",New Delhi,Delhi,110086
114,DIVINE MULTISPECIALITY HOSPITAL AND CANCER CENTER,"102/2 MAIN JAGATPUR ROAD, WAZIRABAD",New Delhi,Delhi,110084
115,Divya Prastha Super Multispeciality Healthcare Pvt Ltd,"RZ-37, Opposite Bagh Wala School, Main Road, Palam Colony-110045-New Delhi",New Delhi,Delhi,110045
116,"DIYOS MENS HEALTH
CENTER PVT LTD","A1/26, SAFDARJUNG Enclave New Delhi",New Delhi,Delhi,110029
117,DOCTOR TODAY,"5c-2bp, RAILWAY ROAD, NIT FARIDABAD-",Faridabad,Haryana,121001
118,Dr Aggarwals Eye Clinic,"F - 17, Moti Nagar, New Delhi",New Delhi,Delhi,110015
119,"DR BAJAJ  EYE HOSPITAL
PVT LTD","A-1/1, Ist floor Nathu Colony
Chowk,Shahdara,New Delhi-110093",New Delhi,Delhi,110093
120,"DR CHAUDHARYS MORAL
HOSPITAL","C-1/1A,C-1/2A, YAMUNA VIHAR
WAZIRABAD ROAD",New Delhi,Delhi,110053
121,DR DHAWANS NETRA EYE HOSPITAL,"WZ - 99, GROUND FLOOR, DAYAL SAR ROAD, UTTAM NAGAR,",New Delhi,Delhi,110059
122,DR DILIP HOSPITAL,765 SEC-28 Faridabad,Faridabad,Haryana,121008
123,Dr Gupta Nursing Home and Hospital,"25, Raj Block,Naveen Shahdara",New Delhi,Delhi,110032
124,Dr Harish Hospital,"House Number - 701,Sector  8,YMCA Road",Faridabad,Haryana,121006
125,Dr Mehta Eye Care,"5E/08, B.P RAILWAY ROAD, NEAR
NEELAM CHOWK, NIT",Faridabad,Haryana,121001
126,DR RAKESH MULTISPECIALITY HOSPITAL,MAIN ROAD SWATANTAR NAGAR NARELA,New Delhi,Delhi,110040
127,DR SUSHMA JINDAL HOSPITAL,"488/15, DILSHAD GARDEN, (NEAR RADHA KRISHAN MANDIR), New Delhi-110095",New Delhi,Delhi,110095
128,"Dr. Kapurs The Healing Touch
Eye Centre","D  8, D Block,Vikaspuri",New Delhi,Delhi,110018
129,Dr. M.L. Gupta Memorial Centre,"5E/4,B.P,N.I.T Railway Road",Faridabad,Haryana,121001
130,Dr. PattnaikS Laser Eye-Institute- N Delhi.,"C-2, GROUND FLOOR, LAJPAT NAGAR-3, NEW DELHI-110024",New Delhi,Delhi,110024
131,Dr. Shroff S Charity Eye Hospital,"5027,Kedar Nath Road,Daryaganj",New Delhi,Delhi,110002
132,"DRISHTI EYE AND ENT
CARE","PLOT NO-8,SECTPR-5 VAISHALI",Ghaziabad,Uttar Pradesh,201010
133,Drishti Eye Centre - Faridabad,"20-21F, Fruit Garden, NIT NH-5",Faridabad,Haryana,121001
134,DRISHTI THE VISION AN ADVANCE EYE CARE CENTRE,"47-A-B, Ground Floor, Pana Udhyan, Narela , Delhi",New Delhi,Delhi,110040
135,Durga Hospital (P) Ltd.,"711,Mukherjee Nagar",New Delhi,Delhi,110009
136,East Delhi Medical Centre,"1/550,G.T. Road,Mansarovar Park,Shahdara",New Delhi,Delhi,110032
137,Eden Hospital Pvt Ltd.,"B-162, East of Kailash",New Delhi,Delhi,110065
138,Escorts Heart Institute  Research Centre Ltd.,Okhla Road,New Delhi,Delhi,110025
139,Eye Care Centre,"1368-B  Sector-14, Faridabad-121007",Faridabad,Haryana,121007
140,EYE CARE SHALIMAR BAGH,"BB 47B,48B JHULELAL MANDIR MARG SHALIMAR BAGH",New Delhi,Delhi,110088
141,EYE FOUR U,241 DDA SFS FLATS SEC 9 PKT DWARKA,New Delhi,Delhi,110077
142,Eye Health Clinic Noida,"E-1, SEC-61, NOIDA-201307",Noida,Uttar Pradesh,201301
143,"EYE MANTRA HOSPITAL
PVT LTD","A1/10 Paschim Vihar, Peeragarhi Chowk, Delhi-
110063",New Delhi,Delhi,110063
144,Eye Q Super Speciality Eye Hospital,"Plot No-531, Sec-27 Near super mart , Gurgaon- 122009",Gurugram,Haryana,122002
145,EYE SCIENCES,"E-82 A, Greater Kailash, New Delhi",New Delhi,Delhi,110048
146,EYE SEVEN HOSPITAL PVT LTD,NO 34 GROUND FLOOR MAIN RING ROAD LAJPAT NAGAR 4 NEW DELHI,New Delhi,Delhi,110024
147,EYE SEVEN HOSPITAL PVT LTD JANAKPURI,A-1/173 GRD FLR NAJAFGARH ROAD JANAKPURI,New Delhi,Delhi,110058
148,EYE SIGHT LASER CENTRE,"52-A , POCKET - 2 , DDA FLATS , BEHIND SEC-6 MAIN MARKET , DWARKA",New Delhi,Delhi,110075
149,Felix Hospital,"NH-01, Sector -137, G.B Nagar, Noida",Noida,Uttar Pradesh,201305
150,Flores Hospital,"NH-1, Block G, Sector-11, Partap Vihar,
Ghaziabad-201009",Ghaziabad,Uttar Pradesh,201009
151,FORESIGHT EYE CLINIC SUPER SPECIALITY EYE CARE,"106, RPS DDA, Sheikh Sarai Phase - 1, Opp. Apeejay School, Malviya Nagar, New Delhi 110017",New Delhi,Delhi,110017
152,Fortis C DOC Healthcare Ltd,"B - 16, Chirag Enclave, Opp. Nehru Place,
Devika Tower, New Delhi",New Delhi,Delhi,110048
153,Fortis Flt Lt Rajan Dhall Hospital,"B-1, Pocket - 1, Aruna Asaf Ali Marg, Vasant Kunj",New Delhi,Delhi,110070
154,Fortis Hospital Noida,"B-22,Sector-62",Noida,Uttar Pradesh,201309
155,Fortis Hospital Shalimar Bagh,"A - Block, Shalimaar Bagh, Delhi-110088",New Delhi,Delhi,110088
156,"FORTIS HOSPITALS LIMITED
Faridabad","Neelam Bata Road,N.I.T.",Faridabad,Haryana,121001
157,"Fortis Memorial Research
Institute",Sec 44 Gurgaon,Gurugram,Haryana,124001
158,GAMBHIR HOSPITAL,"H-74, Rajouri Garden,Delhi",New Delhi,Delhi,110027
159,Gandhi Nursing Home,"C-50,51,Om Vihar,Uttam Nagar",New Delhi,Delhi,110059
160,Ganesh Hospital,"II-C/3,Nehru Nagar",Ghaziabad,Uttar Pradesh,201001
161,Ganesh OrthoTrauma and Medical Centre,"F.15/7, Hansraj Marg, Krishna Nagar Colony",New Delhi,Delhi,110051
162,GARGI HOSPITAL (A UNIT OF KAUSHLYA MEDICAL and RESEARCH CENTER PVT LTD),"R-9/182, Rajnagar Near A L T Centre",Ghaziabad,Uttar Pradesh,201002
163,Genesis Hospital Pvt Ltd,"C-1/130,Near Mata Chanan Devi Hospital,Janak Puri",New Delhi,Delhi,110058
164,GEO HOSPITAL A MULTI SPECIALITY HOSPITAL,"PLOT NO.3 MADHU VIHAR, KHORA COLONY, OPP. MAYRU VIHAR PHASE -3 GHAZIABAD",Ghaziabad,Uttar Pradesh,201005
165,Ghai Hospital,"Plot No. 29,Sector - 9",Faridabad,Haryana,121006
166,GLOBAL HOSPITAL,OPP RAVOLI GARDEN NEAR SHEETLA MATA MANDIR GURUGRAM,Gurugram,Haryana,122001
167,GOYAL EYE CENTER,A-1/3 SAFDARJUNG ENCLAVE,New Delhi,Delhi,110029
168,GOYAL EYE CENTRE A UNIT OF GOYAL MEDICARE CENTRE,"3/51 Ram Gali Vishwas Nagar, Shahdara , Delhi",New Delhi,Delhi,110032
169,Goyal Eye Institute,"1/10 EAST PATEL NAGAR MAIN PATEL
ROAD , Delhi , Central Delhi , Delhi-110008",New Delhi,Delhi,110008
170,Goyal Hospital,Site No. 2 Sec -8,Faridabad,Haryana,121003
171,"Goyal Hospital And Urology
Centre","E-4/8, Lajpat Rai Chowk",New Delhi,Delhi,110051
172,"GOYAL HOSPITAL PASCHIM
V","B-33 LIC COLONY PASCHIM VIHAR NR ST.
MARK SCHOOL",New Delhi,Delhi,110087
173,Green City hospital,"N.H. 17 Delta- I, Greater Noida  ",Noida,Uttar Pradesh,201308
174,GUPTA HOSPITAL,MAIN KANJHAWALA ROAD BUDH VIHAR PHASE DELHI,New Delhi,Delhi,110086
175,Gupta Nursing Home,"160,Sector - 16 A",Faridabad,Haryana,121002
176,HANDA MEDICAL CENTRE,"Nh Site No 1,Sector 16, Opp Sagar Cinema",Faridabad,Haryana,121002
177,Handa Nursing Home,"57, Raja Garden",New Delhi,Delhi,110015
178,HEALING TREE HOSPITAL,30/1 SHAKTI KHAND INDIRAPURAM GHAZIABAD,Ghaziabad,Uttar Pradesh,201014
179,"Hemraj Jain Hospital And
Maternity Home","1, Block, C - 1,Janakpuri",New Delhi,Delhi,110058
180,HiTech Eye Centre,"A-12, 1st Floor, Main Najafgarh Road Vikas Puri, Opposite Metro Pillar No.632 , Delhi , West
Delhi-255080",New Delhi,Delhi,110018
181,Holy Family Hospital,"Okhla Road,New Delhi-110025",New Delhi,Delhi,110025
182,HOPE ONCOLOGY CLINIC,"A-22, Hauz Kahs, New Delhi-110066",New Delhi,Delhi,110066
183,"I CLINIX ADVANCED EYE
CARE","27/171 Vikram Vihar, Near Moolchand Station
Lajpat Nagar-4",New Delhi,Delhi,110024
184,I CREATE HOSPITAL,"A-3/24,3RD FLOOR,JANAKPURI,NEW
DELHI",New Delhi,Delhi,110058
185,IBS Ashwani Hospital,"Plot No 8-D/1, YMCA Road, Sector 11, Faridabad , Faridabad Sector 8 , Ballabgarh , Haryana",Faridabad,Haryana,121006
186,Icare Eye Hospital and P.G. Inst Glaucoma Research Centre,"E3A,Sector-26",Noida,Uttar Pradesh,201301
187,Indian Spinal Injuries Centre,"Sector-C, Vasant Kunj",New Delhi,Delhi,110070
188,"INDIRA GANDHI EYE
HOSPITAL AND RESEARCH CENTRE",Sector - 62 Village - Ullawas,Gurugram,Haryana,122002
189,"Indo Gulf Diagnostics And
Research Centre Pvt Ltd","B - 498A, Sector - 19, Noida, Uttar Pradesh",Noida,Uttar Pradesh,201301
190,"Indraprastha Medical
Corporation Limited",Sarita Vihar Delhi Mathura Road,New Delhi,Delhi,110076
191,Indraprastha Medical Corporation Limited,E-2 Sector-26,Noida,Uttar Pradesh,201301
192,INDUS VALLEY HOSPITAL,"232 MAIN TEHSIL ROAD NEAR TUDA MANDI LAXMI GARDEN,NAJAFGARH",New Delhi,Delhi,110043
193,"INSTITUTE OF BRAIN AND
SPINE","73,Ring Road,Lajpat Nagar-3, New Delhi-
110024",New Delhi,Delhi,110024
194,Ishan Hospital,"Plot No.1,Pocket No-8B,Sector-19,Rohini,Delhi-
89 Rohini Delhi",New Delhi,Delhi,110089
195,ITEK VISION CENTRE,"B-1A/22, Sector 51, Noida-201301",Noida,Uttar Pradesh,201301
196,"JAGMOHAN MULTISPECIALITY
HOSPITAL","E-10, Rajeshwari Park, Loni, Ghaziabad-201102",Ghaziabad,Uttar Pradesh,201102
197,JAI SAI RAM HOSPITAL PRIVATE LIMITED,"T-262, Opposite Church, 40 Feet Road, New PalamVihar, Phase-II, Gurgaon , Palam Vihar (Gurgaon)",Gurugram,Haryana,122017
198,Jain child and maternity hospital p ltd,"No. Ae-7, Shalimar Bagh",New Delhi,Delhi,110088
199,JAIN EYE CLINIC AND CHILDREN SUPERSPECIALITY CLINIC,"Plot No. 111, Ground Floor, G-3, Shakti Khand- 2, Indirapuram",Ghaziabad,Uttar Pradesh,201014
200,"Jain Eye Hospital And Laser
Centre","AG - 152, Shalimar Bagh, New Delhi",New Delhi,Delhi,110088
201,Jain Hospital,"177-178, Jagriti Enclave",New Delhi,Delhi,110092
202,Jaipur Golden Hospital,"2, Institutional Area, Sector-3, Rohini",New Delhi,Delhi,110085
203,Jaypee Hospital,"Sector - 128, Gautam Budh Nagar, Noida, Uttar Pradesh",Noida,Uttar Pradesh,201301
204,JEEVAN JYOTI  HOSPITAL,"M-62 Sector 12 Santosh Medical Road Partap
Vihar Ghaziabad",Ghaziabad,Uttar Pradesh,201009
205,"JEEVAN JYOTI CLINIC AND
NURSING HOME","M - 131, Vikas Puri,  New Delhi",New Delhi,Delhi,110018
206,Jeevan Jyoti Hospital,B 28 Kiran Garden Uttam Nagar,New Delhi,Delhi,110059
207,"Jeewan Hospital And Nursing
Home (Gate No. - 2)","150, Gate No. - 2,Jeewan Nagar, Opp. Maharani
bagh",New Delhi,Delhi,110014
208,Jeewan Hospital And Nursing Home Pvt. Ltd.,"Gate No. - 1,Jeewan Nagar",New Delhi,Delhi,110014
209,Jeewan Jyoti Hospital,"562,Sector-15",Faridabad,Haryana,121007
210,Jeewan Mala Hospital Pvt. Ltd.,"67/1,New Rohtak Road,Karol Bagh",New Delhi,Delhi,110041
211,JEEWAN MOTI KHERA HOSPITAL PVT LTD,"495 MAIN NAJAFGARH ROAD,NEAR KRISHNA MANDIR,OPP. ICICI BANK",New Delhi,Delhi,110041
212,"Jeewan Nursing Home And
Hospital","2-B, Pusa Road",New Delhi,Delhi,110005
213,JINDAL EYE CARE,"60 BLOCKH-5 SEC-11 ROHINI DELHI NEAR
RYAN SCHOOL",New Delhi,Delhi,110001
214,Joy Nursing Home,"J 5/49F,Rajauri Garden",New Delhi,Delhi,110027
215,JR HOSPITAL,"NH-07,B-BLOCK SECTOR BETA- I,GREATER NOIDA G.B NAGAR","Gautam
Buddha Nagar(Noida)",Uttar Pradesh,201308
216,Jyoti Hospital-Gurgaon,"28, Ganapati Enclave, Jharsa Road,",Gurugram,Haryana,122001
217,K K Health Care Centre,"238, SEC-5, URBAN ESTATE, GURGAON",Gurugram,Haryana,122001
218,K.K. Surgical and Maternity Centre,"B-37, East Jyoti Nagar, Loni Road, Shahdara",New Delhi,Delhi,110093
219,KAILASH EYE CARE,50-51 South Patel Nagar New Delhi-110008,New Delhi,Delhi,110008
220,Kailash Hospital and Heart Institute,"H- 33, Sector 27, Noida",Noida,Uttar Pradesh,201301
221,"KAILASH HOSPITAL AND
NEURO INSTITUTE",NH-01 SEC-71 NOIDA,Noida,Uttar Pradesh,201307
222,Kailash Hospital Limited,"23, Institutional Area, Greater Noida",Noida,Uttar Pradesh,201301
223,KALRA HOSPITAL DWARKA,Dwarka Mor Opp Pillar No -761 Uttam Nagar,New Delhi,Delhi,110059
224,"Kalra Hospital S R C N C  PVT
LTD","A - 5- 6, Kirti Nagar",New Delhi,Delhi,110015
225,kalyani hospital,"RZ-30A,Rati Ram Park Naya Bazar,Najafgarh",New Delhi,Delhi,110043
226,Kalyani Hospital Pvt. Ltd.,"Government College, Mehrauli Road",Gurugram,Haryana,122001
227,Kamal Hospital,"KA  Block,Kaushambi Near Telephone
Exchange/Metro Station,Kaushambi",Ghaziabad,Uttar Pradesh,201010
228,KAMLA HOSPITAL,"Pataudi Road, Near Radha Swami Satsang
Bypass",Gurugram,Haryana,250021
229,KAPIL MULTISPECIALITY HOSPITAL,"A-1,SHASTRI PARK,NAER JOSEPH AND MARY PUBLIC SCHOOL NATHUPURA MOR,BURARI,",New Delhi,Delhi,110084
230,Kapoor Medical Centre,"E  18, Naraina Vihar",New Delhi,Delhi,110028
231,Kartik Nursing Home And Urology Centre,"C-15, C-Block Community Centre (Behind Janak Cinema), Janak Puri, New Delhi-110058",New Delhi,Delhi,110058
232,KASHVI MUTI SPECIALITY CENTRE,"PLOT NO.85, ITEHDA, NEAR EK MURTI CHAURAHA, GREATER NOIDA WEST","Gautam Buddha
Nagar(Noida)",Uttar Pradesh,201009
233,Kathuria Hospital And Diagnostic Centre,19 / 8 Model Town,Gurugram,Haryana,122001
234,kedar hospital,3B/3 BP NIT Faridabad-121001,Faridabad,Haryana,121001
235,Kesar Hospital,"C-480 Chawala Colony,Ballabhgarh,Faridabad,Haryana",Faridabad,Haryana,121004
236,Kesar Hospital,"AH -11, Shalimar Bagh",New Delhi,Delhi,110088
237,Kesar Nursing Home,"Wz-61-A/3B, Opposite Institutional Area, Block- D, Street No.12, Vashist Park, Pankha Road",New Delhi,Delhi,110046
238,KHANDELWAL HOSPITAL AND UROLOGY CENTRE PVT LTD,"B-16,East Krishna Nagar",New Delhi,Delhi,110051
239,Khanna Eye Centre,"E368, Nirman Vihar , Vikas Marg",New Delhi,Delhi,110092
240,Khanna Eye Centre,"A-2/2, Model Town 1",New Delhi,Delhi,110009
241,Khanna Hospital,"C2/396,Janakpuri",New Delhi,Delhi,110058
242,Khetarpal Hospital,"F-95,Bali Nagar",New Delhi,Delhi,110015
243,Khetarpal Nursing Home,"GN-5, Shivaji Enclave, F N G Sector Raja
Gardens, Rajouri Garden",New Delhi,Delhi,110027
244,KONARC HOSPITAL,"9A/1,NARESH PARK,NEAR WATER TANK, MAIN NAJAFGARH ROAD, NANGLOI.",New Delhi,Delhi,110041
245,Kosmos Superspeciality Hospital,"C-60, Anand Vihar(Vikas Marg), 
Delhi-110092",New Delhi,Delhi,110092
246,"Krishna Family Hospital and
Infertility Centre","G-34, sector 11 , Pratap vihar, Opp pratap vihar
police chowki",Ghaziabad,Uttar Pradesh,245101
247,Krishna Hospital and Trauma Centre,"J, 85,Patel Nagar, I",Ghaziabad,Uttar Pradesh,201001
248,KRISHNA NURSING HOME,"H No.71 ,Near Milan Restaurant Sector- 10,Housing Board Colony",Faridabad,Haryana,121001
249,KRITI HOSPITAL,"PLOT NO. 13 SECTOR 56 IN FRONT
KENDRIYA VIHAR",Gurugram,Haryana,122001
250,Kukreja Hospital,"No.D-36, Acharya Niketan,Mayur Vihar Phase -
1",New Delhi,Delhi,110061
251,Kukreja Hospital And Heart Centre,"C-1, Vishal Enclave, Rajouri Garden",New Delhi,Delhi,110027
252,KUMAR HOSPITAL NOIDA,"NH 10 G BLOCK SECTOR BETA II GREATER NOIDA GAUTAM BUDDHA
NAGAR",Noida,Uttar Pradesh,201308
253,LAL SUPERSPECIALITY HOSPITAL,"625/20, VEER NAGAR, MAIN MADANPURI ROAD PATAUDI CHOWK GURUGRAM",Gurugram,Haryana,122001
254,LALL 20/20 EYE CARE PVT LTD,"Plot No 50SP, Sector 45 , Wazirabad , Gurgaon , Haryana",Gurugram,Haryana,122003
255,Lall Eye Care Centre,New Railway Road,Gurugram,Haryana,122001
256,"Lall Nursing and Maternity
Home",New Railway Road Opp Pawa Nursing Home,Gurugram,Haryana,122006
257,LIFE HOSPITAL UNIT OF TANISHKA HOSPITAL,"NH SITE 1 OPP HANUMAN MANDIR SECTOR-8,F ARIDABAD 
 ",Faridabad,Haryana,121006
258,Lifeline Hospital (Delhi),"Plot No. 42,Sector 12B,Dwarka",New Delhi,Delhi,110075
259,LIFELINE HOSPITAL UNIT OF AMFAH HEALTHCARE PVT LTD,A-13 PRIYADARSHINI VIHAR LAXMI NAGAR,New Delhi,Delhi,110092
260,Lohan Children Hospital,"5C-14,B.P.,NIT",Faridabad,Haryana,121001
261,LOTUS HOSPITAL,"PLOT . NO. 2 JEEVAN NAGARMAIN SOHANA BALLABGARH ROAD NIT
FARIDABAD",Faridabad,Haryana,121004
262,Lotus Hospital,"WZ 409- A, Janak Park,Hari Nagar",New Delhi,Delhi,110064
263,LYF HOSPITAL,"NH-4,Gyan Khand -1 indira",Ghaziabad,Uttar Pradesh,110092
264,M D CITY HOSPITAL,"4C,INSTITUTIONAL AREA NORTH EX
MODEL",New Delhi,Delhi,110009
265,M.D. Eye Care and Laser Centre,M-165 Greater Kailash Part - 2,New Delhi,Delhi,110048
266,M.G.S. Hospital,"Rohtak Road, West Punjabi Bagh",New Delhi,Delhi,110026
267,"MADHUKAR RAINBOW
CHILDRENS HOSPITAL","Fc-29, Plot No.5, Near Malviya Nagar Metro
Station Geetanjali",New Delhi,Delhi,110017
268,Mahajan Eye Centre,"21A AD Block, Pitampura Outer Ring Road Near Madhuban Chowk Pitampura Metro Station New Delhi-110034",New Delhi,Delhi,110034
269,Mahajan Hospital,"A-4, Milap Nagar,New Delhi-110059",New Delhi,Delhi,110059
270,"MAHARAJA AGARSAIN
MULTI SPECIALITY HOSPITAL","main BAWANA ROAD,NARELA,near maharaja agarsain public school",New Delhi,Delhi,110040
271,Maharaja Agrasen Hospital,"Road Number-35, New Rohtak Road,Punjabi
Bagh",New Delhi,Delhi,110026
272,"Maharaja Agrasen Hospital
Dwarka","Plot-1,Sec-1,Dwarka New Delhi",New Delhi,Delhi,110075
273,Mahindru Hospitals Pvt. Ltd,"E 1, Kiran Garden, Uttam Nagar New Delhi",New Delhi,Delhi,110059
274,Makkar Medical Centre,"A  1, Priyadarshini Vihar",New Delhi,Delhi,110092
275,Malik Radix Healthcare Pvt Ltd,"C  218, Nirman Vihar",New Delhi,Delhi,110011
276,Mamta Hospital,"877, Mata Mandir Road",Gurugram,Haryana,122001
277,Manas Hospital  Unit of Sharma Medical Centre Pvt Ltd,"A-93,Sector-34, Noida,Gautam Budh Nagar- 201301","Gautam Buddha
Nagar(Noida)",Uttar Pradesh,201301
278,MANAV HOSPITAL and LASER EYE CENTRE,"B Block , Near Sbi Bank Kavi Nagar, Ghaziabad- 201002",Ghaziabad,Uttar Pradesh,201002
279,MANAVTA HOSPITAL PVT LTD,"PLOT NO-494,NEAR ITI WOMEN COLLEGE,UNCHA GAON,PREM NAGAR,MOHANA ROAD",Ballabgarh,Haryana,121004
280,MANGALAM MEDICAL AND SURGICAL CENTRE,PLOT NO 154/81 MAIN BAWANA ROAD POOTH KHURD DELHI,New Delhi,Delhi,0
281,MANIPAL HOSPITAL PVT LTD GURGRAM,"Block -F gol chakkar,Palam Vihar",Gurugram,Haryana,122017
282,MANIPAL HOSPITALS,"ADJOING MTNL BULINDING,MAIN
ROAD,SEC-6,DWARKA,NEW DELHI",New Delhi,Delhi,110075
283,"MANIPAL HOSPITALS PVT
LTD GZB","NH-24, Opp. Bahmeta Village, Near Landcraft
Golflinks",Ghaziabad,Uttar Pradesh,201002
284,Mansa Ram Hospital,"B-5, AMAN PURI, NANGLOI, NEW DELHI",New Delhi,Delhi,110041
285,Mata Chanan Devi Hospital,"C-1, Janakpuri",New Delhi,Delhi,110058
286,Mata Roop Rani Maggo and Mahindru Hospital,"C 9, Om Vihar Phase 7, Uttam Nagar, Metro Pilas 708",New Delhi,Delhi,110059
287,Max  Healthcare Institute Ltd,"A-364,Sector-19",Noida,Uttar Pradesh,201301
288,Max Hospital,"Block  B, Sushant Lok",Gurugram,Haryana,122001
289,Max Hospital,"N- 110 , Panchsheel Park",New Delhi,Delhi,110017
290,Max Smart Super Speciality Hospital,"Mandir Marg, Saket",New Delhi,Delhi,110017
291,Max Super Speciality Hospital,"W - 3, Sector - 1, Vaishali",Ghaziabad,Uttar Pradesh,201001
292,"Max Super Speciality Hospital,
Shalimar Bagh","FC - 50, C and D Block, Shalimar Bagh, New
Delhi - 88",New Delhi,Delhi,110088
293,"Max Super Specialty, East Block Saket (Devki Devi Foundation","2, Press Enclave,Saket",New Delhi,Delhi,110017
294,"Max Super Specialty, West Block
Saket","1, Press Enclave Road, Saket,",New Delhi,Delhi,110017
295,Mayom Hospital,"D - Block, South City - I, Gurgaon",Gurugram,Haryana,122002
296,MED FIRST ENT  CENTRE,"D-3/14, Vasant Vihar Opp Vasant Vihar Club",New Delhi,Delhi,110057
297,Medanta The Medicity,"Sector 38, Rajeev Chowk",Gurugram,Haryana,122001
298,"Medicheck Ortho Superspeciality
Hospital","Site-2,Sec-46, Near Community Centre,
Faridabad-121010",Faridabad,Haryana,121010
299,MEDLIFE HOSPITAL,"KH NO 346 MAIN ROAD BURARI DELHI-
110084 BURARI",New Delhi,Delhi,110084
300,MEDSTAR HOSPITAL,"Om Enclave, Part-1, Near Toll Tax, Agwanpur
Road,  , Mathura Road",Faridabad,Haryana,121003
301,Meenakshi Hospital,B - 13 Kaushambhi,Ghaziabad,Uttar Pradesh,201010
302,"Metro Heart Institute with
Multispeciality",Sector-16A,Faridabad,Haryana,121003
303,"Metro Hospital  And Cancer
Institute","21, Community Centre, Preet Vihar",New Delhi,Delhi,110092
304,Metro Hospital and Heart Institute,"14, Ring Road,Lajpat Nagar",New Delhi,Delhi,110024
305,Metro Hospital And Heart Institute (Metro Heart Institute),"X-1, Sector - 12, Near Sahara Samay News Paper",Noida,Uttar Pradesh,201301
306,Metro Hospital And Heart Institute (Metro Multi Speciality Hospital),"L-94, Sec.- 11",Noida,Uttar Pradesh,201301
307,Mohan Eye Institute,"11  B, Ganga Ram Hospital Marg",New Delhi,Delhi,110060
308,Monga Medical Centre,"J-10, Krishna Nagar",New Delhi,Delhi,110051
309,MOTHERHOOD HOSPITAL NOIDA,B 206 A SECTOR 48 NOIDA GAUTAM BUDDHA NAGAR,Noida,Uttar Pradesh,201301
310,"NAMOKAR EYE AND
OCULOPLASTY CENTRE","13 A, Pocket A, Phase-3, Ashok Vihar",New Delhi,Delhi,110052
311,NAMOKAR NURSING HOME,"B-1/467-470 Sultan puri (near state bank of
india)Delhi",New Delhi,Delhi,110086
312,Narang Eye Institute,B-8 Derawal Nagar Near Model Town Metro Station,New Delhi,Delhi,110009
313,NARAYANA SUPERSPECIALITY HOSPITAL,"PLOT NO-3201,BLOCK-V, DLF PHASE- III,SECTOR-24.",Gurugram,Haryana,122002
314,Narinder Mohan Hospital And Heart Centre,"Mohan Nagar, Ghaziabad-201007",Ghaziabad,Uttar Pradesh,201007
315,"National Institute Of Medical
Sciences",Sector -23A,Faridabad,Haryana,121005
316,"NAVIN HOSPITAL (A UNIT OF NAVIN MEDITECH PVT
LTD )","Nh-1, Sector-3 Vaishali",Ghaziabad,Uttar Pradesh,201010
317,NAVIN MEDICARE PVT LTD,"N.H.- 3, Pocket - F , Sector - Alpha - Ii Greater Noida UTTAR PRADESH-201301",Noida,Uttar Pradesh,201308
318,Navjeevan Hospital,"A-12-13 Pushpanjali Enclave, Opp. Jaipur Golden Red Light, Outer Ring Road, Pitampura",New Delhi,Delhi,110088
319,Navjeevan Medical Centre,"T-655,Onkar Nagar Delhi-110035",New Delhi,Delhi,110035
320,Navjyoti Eye Centre,"90, Opposite Hindi Park, Shyam Lal Road, Darya Ganj , Delhi , Central Delhi , Delhi-110002",New Delhi,Delhi,110002
321,Nayan Jyoti Eye Centre,"1A-251, First Floor, NIT- 121001, Neelam Bata
Road Near Kotwali Police Station, Faridabad- 121001",Faridabad,Haryana,121001
322,Nazar Kanwar Surana Hospital,"219/220, N K Surana Marg, Gulabi Bagh, Malka Ganj",New Delhi,Delhi,110007
323,Neelkanth Hospital Pvt. Ltd.,1 Nathupur Road,Gurugram,Haryana,122002
324,NEERA EYE CENTRE  LASER VISION,"B-99, BHARAT RAM ROAD, OPP.
COMMERCIAL SCHOOL, DARYAGANJ- 110002",New Delhi,Delhi,110002
325,Neo Hospital A Unit Of Muskan Medical Centre Pvt Ltd,"D-170A,Sector-50,Noida-201301",Noida,Uttar Pradesh,201301
326,NETRAM EYE CENTER,"I-1791,C R PARK,NEAR IDBI BANK,NEW DELHI",New Delhi,Delhi,110019
327,Netrayatan (Dr. Grover S Eye Care And Microsurgery Centre),"S-371, Greater Kailash-II",New Delhi,Delhi,110048
328,NEW VISION EYE CENTRE,"A-5/233,FIRST FLOOR PASCHIM VIHAR DELHI",New Delhi,Delhi,110063
329,NIMMS MULTISPECIALITY HOSPITAL,AT-310 KHA HALDONI BISRAKH ROAD KULESHRA,"Gautam
Buddha Nagar(Noida)",Uttar Pradesh,201306
330,NIRMLA HOSPITAL,"RZ-E-20, JAI VIHAR- PHASE -01
NAJAFGARH",New Delhi,Delhi,110043
331,"NIVARAN MULTISPECIALITY
HOSPITAL","Plot no. 13 A, Noble enclave opp maruti udyog, old delhi road, gurugram",Gurugram,Haryana,122504
332,Noida Medicare Centre Ltd.,"16 C, Block - E, Sector-30",Noida,Uttar Pradesh,201301
333,NULIFE HOSPITAL PVT LTD,"1616, OUTRAM LINES, GTB NAGAR DLHI",New Delhi,Delhi,110009
334,OKHLA EYE AND LASER CENTRE,"D 247, ABUL FAZAL ENCLAVE, JAMIA NAGAR NEAR OKHLA VIHAR METRO
STATION , Jamia Nagar",New Delhi,Delhi,110025
335,Om Medical Centre,"B-209, Ashok Nagar,(Opp.DDPS),Ghaziabad-
201001",Ghaziabad,Uttar Pradesh,201001
336,OM SAI HOSPITAL,PANCHSHEEL COLONY NEAR ASTHA TVS SHOWROOM,Gautam Buddha Nagar(Noida),Uttar Pradesh,201009
337,ONCOPLUS HOSPITALS,"OPP.MARUTI SUZUKI SHOWROOM,NEW DELHI",New Delhi,Delhi,110024
338,Orthoplus Hospital,"RZ B28, Najafgarh, Gopal Nagar",New Delhi,Delhi,110043
339,Panchsheel Hospital Pvt. Ltd,"C-3/63A,64 A, Yamuna Vihar, Opposite Gokal
Puri Police Station-110053",New Delhi,Delhi,110053
340,Param Jyoti Eye Centre (A Unit Of M. S Medicare Pvt. Ltd),"16A/CP-2155,Vasundhara,Ghaziabad-201012",Ghaziabad,Uttar Pradesh,201012
341,Paras Hospital,"Sec -4/130, Vaishali",Ghaziabad,Uttar Pradesh,201010
342,Paras Hospitals,"C-1,Sushant Lok,Phase-I,Sec - 43",Gurugram,Haryana,122002
343,Park Hospital,"J - Block, Sector - 10 Near Court Faridabad,
Haryana",Faridabad,Haryana,121004
344,PARK HOSPITAL,"Q-BLOCK,SOUTH CITY-II, SOHNA ROAD, MAIN SEC-47, GURGAON",Gurugram,Haryana,122002
345,Park Hospital (Delhi),"12,Meera Enclave,Near Keshopur Bus
Depot,Outer Ring Road",New Delhi,Delhi,110018
346,"PAWAN HEALTHCARE PVT
LTD","Samaypur Road Rajiv Colony Near Sec-56
Ballabhargh",Ballabgarh,Haryana,121004
347,PAWAN HOSPITAL,"Plot no.2, Jiwan Nagar, Opp. Peer Baba, Sohna Road, NIT FBD",Faridabad,Haryana,121001
348,PEARL HOSPITAL,"RZ-40, A-BLOCK, GALI NO 2, DEENPUR EXTN, GURGAON ROAD, NAJAFGARH",New Delhi,Delhi,110043
349,Pentamed Hospital,"7, Local Shopping Centre, Phase - 4, Derawal
Nagar, Gujrawala Town",New Delhi,Delhi,110009
350,POLARIS HOSPITAL,"RAHEJA MALL,SOHNA ROAD SECTOR
48,GURUGRAM HARYANA",Gurugram,Haryana,122001
351,PRAGATI EYE CENTRE,E-5/5 NEAR GOYAL HOSPITAL KRISHNA NAGAR,New Delhi,Delhi,110051
352,Prakash Hospital,"Site No.2,Near Aggarwal Public School,Sector - 3",Faridabad,Haryana,121004
353,Prakash Hospital,"D-12 12-A,B Sector- 33, Opposite NTPC EOC",Noida,Uttar Pradesh,201301
354,PRAKASH HOSPITAL,"PLOT NO. 9A,POCKET-P2,SECTOR OMEGA - 1,BUILDER AREA GREATER NOIDA",Noida,Uttar Pradesh,201010
355,"Prayag Hospital And Research
Centre","J-206/A-1, Sector-41",Noida,Uttar Pradesh,201301
356,Prime Hospital and Ortho Centre,"Site No. 1,Huda Market, Sector-30,Faridabad-
121002",Faridabad,Haryana,121002
357,Primus Super Speciality Hospital,"2 Chandragupt Marg, Chanakyapuri",New Delhi,Delhi,110021
358,PROMHEX MULTISPECIALITY HOSPITAL  A UNIT OF PROMHEX PLUS HEALTHCARE PVT LTD,Plot No NH-34 Sec-P2 Omega-1 Greater Noida,Noida,Uttar Pradesh,201308
359,PT R R M HOSPITAL,"Plot No.3- Kh-27/1, Near Vats Market VPO
Bakkarwala, Mundka, , Bakkarwala",New Delhi,Delhi,110041
360,PURANG EYE CENTRE,"A-114, Vishal Enclave Rajauri Garden , New
Delhi , Rajouri Garden J-6 ,",New Delhi,Delhi,110027
361,Pushpanjali Medical Centre,"A-14-15, Pushpanjali",New Delhi,Delhi,110092
362,Pushpawati Singhania Research Institute For Liver  Renal And Digestive Diseases.,"Press Enclave Marg, Sheikh Sarai,Phase - II",New Delhi,Delhi,110017
363,QRG Health City A Unit Of QRG Medicare Ltd,"Plot No.1,Sector-16,Faridabad-121002",Faridabad,Haryana,121002
364,R S MAITRI HEALTH CARE,"J-278,PATEL NAGAR,Ghaziabad",Ghaziabad,Uttar Pradesh,201001
365,"R.G Scientific Enterprises Ltd.(R G Stone Urological Research
Institute)","F-12, East of Kailash",New Delhi,Delhi,110065
366,"R.G. Stone and Urology and
Laproscopy Hospital ND","B-1, Vishal Enclave, Rajouri Garden",New Delhi,Delhi,110027
367,"R.G. Stone Urology and
Laparoscopy Hospital","195, Deepali Chowk, Pitampura",New Delhi,Delhi,110088
368,R.G. Stone Urology and Laparoscopy Hospital,"18,Gagan Vihar",New Delhi,Delhi,110092
369,R.K. Hospital,3c-59 B.P. E.S.I. Hospital,Faridabad,Haryana,121001
370,RADIUM EYE CENTRE,"A1/11, 3rd Floor, Sector 8, Rohini,",New Delhi,Delhi,110085
371,"RAJ RISHIK HOSPITAL
PRIVATE LIMITED","Site No-6, Near Aggarwal Public School,Sec-3,
faridabad",Ballabgarh,Haryana,121004
372,"RAJIV GANDHI CANCER
INST. AND RESEARCH CENTRE","D-18, Sector - 5 Rohini, Delhi",New Delhi,Delhi,110085
373,"Ram Lal Kundan Lal Orthopaedic Hospital And R.K.
Maternity Home","Plot No. - 8, Patparhganj Road, Opposite Mother Dairy Pandav Nagar",New Delhi,Delhi,110092
374,RANA EYE CENTRE,"C-8/28 , FIRST FLOOR , SECTOR 7 , SAI BABA CHOWK , ROHINI , OPP METRO
PILLAR 394 , Rohini Sector-7 , North Delhi-
110085",New Delhi,Delhi,110085
375,RATHI HOSPITAL,2-3 PRATAP VIHAR NANGLOI RANHOLA,New Delhi,Delhi,110041
376,RAVI EYE FOUNDATION,"B-8, GANESH NAGAR, NEW DELHI",New Delhi,Delhi,110018
377,REVIVE HOSPITAL,"5A/2, 491, opp. Metro Pillar No, near Police
Station, Tilak Naga",New Delhi,Delhi,110018
378,"RG Stone Urology and
Laparoscopy Hospital","A-6,Nehru Ground Neelam Bata Road,NIT",Faridabad,Haryana,121001
379,Rlkc Hospital - Metro Heart Institute,"Nariana Road, Near Shadipur Metro Station, Pandav Nagar , Delhi , Central Delhi , Delhi- 110008",New Delhi,Delhi,110008
380,Rockland Hospital,"B-33-34,Qutub Institutional Area",New Delhi,Delhi,110016
381,ROOPCHAND HOSPITAL,19/16 MAIN MUBARAKPUR DABAS DELHI,New Delhi,Delhi,110081
382,ROSEWALK HEALTHCARE PRIVATE LIMITED,N 88 PANCHSHEEL PARK NEW DELHI,New Delhi,Delhi,110017
383,rosewood hospital,"5-J L, BLOCK, ROSHAN GARDEN,NAJAFGARH, NEW DELHI-110043",New Delhi,Delhi,110043
384,Rs Grover Memorial Hospital,"B-243, Priyadarshini Vihar,Near Lovely Public
School,Laxmi Nagar, Delhi-110092",New Delhi,Delhi,110092
385,"S M S MULTISPECIALITY
HOSPITAL","SITE NO-9 , SECTOR- 3, NEAR HUDA
MARKET BALLABGARH",Ballabgarh,Haryana,121004
386,S R KRISHNA HOSPITAL PVT LTD,"Plot Not 23, 24, Jain Park Matiala Road Opposite Metro Pillar",New Delhi,Delhi,110059
387,SADHNA HOSPITAL DELHI,NZA-635 RAJ NAGAR-1 MAIL ROAD PALAM COLONY OPP DWARKA FLYOVER PILLAR NO 44 NEW DELHI,New Delhi,Delhi,110045
388,Sahdeo Hospital (Greater Noida),"NH 33 SECTOR OMEGA 1,NEAR AUTHORITY OFFICE,GAUTAMBUDDHA NAGAR",Noida,Uttar Pradesh,201306
389,SAI EYE CARE AND MEDICAL CENTRE,"H-98 1,SECTORE-12,PRATAP VIHAR GHAZIABAD",Ghaziabad,Uttar Pradesh,201009
390,SAI SIDDHI UROLOGY AND MULTI SPECIALITY HOSPITAL,"P-82,Sec-46 Gurugram",Gurugram,Haryana,122001
391,Sama Hospital,"8, Siri Fort Road",New Delhi,Delhi,110049
392,Samvit Healthcare,"1,Sohna Road,Islampur",Gurugram,Haryana,122001
393,Samyak Hospital,BM-7 East Shalimar Bagh,New Delhi,Delhi,110088
394,Sanjeevan Medical Research Centre (P) Ltd.,"4869/24, Ansari Road, Darya Ganj",New Delhi,Delhi,110002
395,SANJEEVANI HOSPITAL BADSHAPUR,"Near Radha Krishan Mandir, Opposite Corporation Bank, Sohna Road, Badshahpur",Gurugram,Haryana,122101
396,Sant Parmanand Hospital,"18, Sham Nath Marg,Opposite Civil Line Metro
Station",New Delhi,Delhi,110054
397,Sant Soham Hospital,"KHASRA NO - 304/5 KANJHAWALA ROAD
BAWANA , Bawana",New Delhi,Delhi,110042
398,Santom Hospital Pvt. Ltd.,"D - 5, Prashant Vihar",New Delhi,Delhi,110085
399,Santosh Multispeciality Hospital,"Shop No. 3F/139, Metro Rd, New Industrial Twp 3A, New Industrial Town, Faridabad, Haryana-
121001",Faridabad,Haryana,121001
400,Saraswati Hospital,299/2 old Delhi Road anamika enclave,Gurugram,Haryana,122001
401,Sardana Eye Institute,"A2/19, RAJOURI GARDEN",New Delhi,Delhi,110027
402,Saroj Medical Institute,"Plot no-8 and 9 , Pocket-8B, Sector 19, Jail Road
, Rohini, Delhi 110089 ",New Delhi,Delhi,110085
403,Saroj Super Speciality Hospital,"Sector-14 Extn, Institutional Area, Madhubhan
Chowk Rohini",New Delhi,Delhi,110085
404,Sarthak Medical Centre,"RZ-2C, Main Road, Palm Village",New Delhi,Delhi,110010
405,Sarvodaya Hospital,"Gopi Colony,Sector-19,Faridabad-121006",Faridabad,Haryana,121006
406,Sarvodaya Hospital and Research Centre,"YMCA Road, Near ESI Hospital,Sector - 8",Faridabad,Haryana,121001
407,"SARVODYA HOSPITAL Only
for  Hero Honda corp","1031/1, Railway Road Near Mata Chintpurni Mandir Gurgaon",Gurugram,Haryana,122001
408,SAT NARAYAN HOSPITAL,"BUDH VIHAR PHASE 1, MAIN KANJHWALA RD, OPP SHREE RAM
DHARMA KANTA",New Delhi,Delhi,110086
409,Satya Medical Centre,"A-98/A, Sector - 34",Noida,Uttar Pradesh,201301
410,Satyabhama Hospital Pvt Ltd,"RZ - 10, Naresh Park, Near Water Tank,
Najafgarh Road, Nangloi, New Delhi",New Delhi,Delhi,110041
411,Satyam Hospital,"2/C-14 B.P. NIT, Faridabad",Faridabad,Haryana,121001
412,SATYAM HOSPITAL,"173/27,NEAR HANUMAN MANDIR GALI
NO 3,MADANPURI,GURGAON",Gurugram,Haryana,122001
413,Save Sight Centre,"A-14,G.T.Road, Adarsh Nagar,Opp.Adarsh
Metro Station,Delhi",New Delhi,Delhi,110033
414,SAVITRI HOSPITAL,"142/91,EXTENDED LAL DORA,KANJHAWALA DELHI",New Delhi,Delhi,110081
415,"Sawan Neelu Angles Nursing
Home","J  293, Saket",New Delhi,Delhi,110017
416,"SCI International ISIS Hospital
Pvt Ltd","M-4, Greater Kailash, Part -1 Near M-Block
Market",New Delhi,Delhi,110048
417,Sehgal Neo Hospital,"B-362, 363, 364, Meera Bagh, Outer Ring Road, Paschim Vihar, New Delhi  110063",New Delhi,Delhi,110063
418,Sethi Hospital,"301-302/4, Model Town",Gurugram,Haryana,122017
419,Shakuntala Hospital,"(Shakuntla Devi Hospital Limited) Bank Colony, G T Road, Modinagar,Ghaziabad-201201",Modinagar,Uttar Pradesh,201204
420,SHAKUNTLA HOSPITAL,"RZ-I-81A, Sagarpur West, Sagarpur West,
Opposite Vidyut Board Colony",New Delhi,Delhi,110046
421,Shankar Medicare Centre,3/184 Sector 28 Link Road near Anupam Sweets Faridabad,Faridabad,Haryana,121008
422,Shanti Devi Memorial Hospital,"Sector - 89, Kheri More, Bhopani, Faridabad",Faridabad,Haryana,121002
423,Shanti Gopal Hospital,"Plot No. NH-1,Ahinsa Khad-II,Indirapuram",Ghaziabad,Uttar Pradesh,201010
424,SHANTI KUMUD HOSPITAL,A-8 ADARSH NAGAR METRO STATION,New Delhi,Delhi,110033
425,Shanti Mukand Hospital,"2, Institutional Area, Dayanand Vihar, Vikas Marg Extension",New Delhi,Delhi,110092
426,Shanti Nursing Home,"RZ-13, SANJAY ENCLAVE Uttam Nagar, New
Delh",New Delhi,Delhi,110059
427,Sharda Hospital,32 34 Knowledge Park Iii Greater Noida,Noida,Uttar Pradesh,201306
428,SHARMA MEDICARE PVT LTD,"NH-19/A, L- Block, Delta-2, Greater Noida- 201308",Noida,Uttar Pradesh,201308
429,Sharp Sight Centre (East),"A-15, Swasthya Vihar, Opp.MEtro Pillar No-83,
Vikas Marg, Delhi-110092",New Delhi,Delhi,110092
430,"Sheetla Hospital And Eye
Institute Pvt. Ltd.","Near D.S.D. College, New Railway Road",Gurugram,Haryana,122001
431,Shishu Sadan Multispeciality Children Hospital,"A-1/169-A, JANAKPURI OPP. METRO PILLAR NO -616",New Delhi,Delhi,110058
432,Shivalik Hospital,"Huda Market, Sector-37",Faridabad,Haryana,121002
433,SHIVALIK HOSPITAL,"SEHATPUR,OPP SEC 91,FBD HARYANA",Faridabad,Haryana,121003
434,Shivalik Hospital,"5,Gangapuram,Opposite Govindpuram Petrol Pump",Ghaziabad,Uttar Pradesh,201002
435,"SHIVALIK MEDICAL
CENTRE PVT LTD","MAIN ROAD,HOSHIYARPUR,SEC-
51,NOIDA-201301",Noida,Uttar Pradesh,201301
436,Shivmani Hospital,"5E/9, NIT",Faridabad,Haryana,121001
437,SHREE AGGARSAIN INTERNATIONAL HOSPITAL,"SECTOR-22,ROHINI,DELHI",New Delhi,Delhi,110086
438,Shree Jeewan Hospital,"67/1 and 66/2A, New Rohtak Road, Delhi, Central Delhi , Delhi-110005",New Delhi,Delhi,110005
439,SHREE KRISHNA HOSPITAL,"B-62, SURYA VIHAR, SEC-4 NEAR POLICE
CHOWKI",Gurugram,Haryana,122001
440,Shreya Eye Centre,"D  163,Surajmal Vihar",New Delhi,Delhi,110092
441,"Shri Balajis Multispeciality
Hospital",Sector 9-10 Basai Road,Gurugram,Haryana,122001
442,"SHRI DAYA DUTT VASHIST
HOSPITAL","J-34, Ganga Ram Vatika, Near Raj Cinema,
ChowkhandiTilak Nagar",New Delhi,Delhi,110018
443,SHRI GOBIND HOSPITAL,"753/21,MAIN MADAN PURI ROAD,NEAR PATAUDI CHOWAK,",Gurugram,Haryana,122001
444,Shri Mool Chand Kharaiti Ram Hospital And Ayurvedic Research Institute,Lajpat Nagar- 3,New Delhi,Delhi,110024
445,Shri Ram Singh Hospital And Heart Institute,"B-25-25, 26-A, East Krishna Nagar, Swarn Cinema Road,",New Delhi,Delhi,110051
446,"SHRI RAM SINGH MULTI
SPECIALITY HOSPITAL",SECTOR 70 NOIDA GB NAGAR UP,Noida,Uttar Pradesh,201301
447,Shroff Eye Centre,"110-Commercial Plaza,Radisson Suites,B- Block,Sushant Lok Phase-I,Gurgaon,Haryana",Gurugram,Haryana,122002
448,Shroff Eye Centre,"A-9, Kailash Colony",New Delhi,Delhi,110048
449,Shubham Hospital,"DD-15, Kalkaji",New Delhi,Delhi,110019
450,SINGHAL HOSPITAL DELHI,"C-40 STRT NO 9 NEAR DESU OFFICE
MANGLAPURI SADH NAGAR PALAM",New Delhi,Delhi,110045
451,SINHA HOSPITAL,"PLOT NO 3-A, ROSHAN MANDI,NEAR PNB ATM, TUDA MANDI,NAJAFGARH,NEW DELHI",New Delhi,Delhi,110043
452,Sir Ganga Ram Hospital,"Sir Ganga Ram Hospital Marg, Old Rajinder
Nagar",New Delhi,Delhi,110060
453,SJM Super Speciality Hospital,"Plot No-2 Chhijarsi,NH 24, Near Hindon
Bridge,Oppsite Shani Mandir, Sector-63 Noida- Uttar Pardesh-201301",Noida,Uttar Pradesh,201301
454,"Sodhi Nursing Home And Ent
Hospital","455,Bhera Enclave,Paschim Vihar,New Delhi",New Delhi,Delhi,110087
455,Sonia Hospital,"1,Gulsan Park,Main Rohtak Road,Nangloi",New Delhi,Delhi,110041
456,Sparsh Medicare and Trauma Centre,"Shakti Khand-III/54, Indirapuram",Ghaziabad,Uttar Pradesh,201001
457,SPES HOSPITAL,"369/20 SHANTI NAGAR BERIWALA RD
RAJIV CHOWK",Gurugram,Haryana,110038
458,SPES SUPERSPECIALITY HOSPITAL AND TRAUMA CENTER,"Plot No: A-2, Sector -OMEGA -2, NRI City Complex, Near PARI CHOK, Greater Noida",Noida,Uttar Pradesh,201310
459,SRG SPECIALITY HOSPITAL,"E-2/241,SHASTRI NAGAR,DELHI",New Delhi,Delhi,110052
460,Sri Balaji Action Medical Institute,"FC-34 A-4, Paschim Vihar",New Delhi,Delhi,110063
461,SSB HEART AND MULTISPECIALITY HOSPITAL,"69 Sector-20A,Near Neelam Fly Over,Ajronda Chowk",Faridabad,Haryana,121001
462,SUKHDA HOSPITAL AND MATERNITY CENTRE,GALI NO 7 KADIPUR IND. AREA MAIN PATAUDI ROAD GURUGRAM,Gurugram,Haryana,122001
463,Sukhmani Hospital,"B-7 Extn/126 A, Safdarjung Enclave",New Delhi,Delhi,110029
464,Suman Super Speciality Hospital,"Plot No. 14,Pocket  04,Sector  7,Bindapur,Janak puri-110059",New Delhi,Delhi,110059
465,Sumitra Hospital,"A  119A, Sector - 35",Noida,Uttar Pradesh,201301
466,"Sunder Lal Jain Charitable
Hospital","Ashok Vihar, Phase III",New Delhi,Delhi,110052
467,SUNETRA EYE LASER AND DENTAL CARE CENTRE,"K C - 120, C- BlockKAVI NAGAR GHAZIABAD",Ghaziabad,Uttar Pradesh,201002
468,SUNETRAM EYE CARE,"5E/22 BP,FIRST FLOOR, B K CHOWK,NIT-5
,FARIDABAD-121001 ",Faridabad,Haryana,121001
469,SUNRISE HOSPITAL,"Plot No - 1, Pkt -8 B, Sector 15, RohiniRohini",New Delhi,Delhi,110085
470,SUPREME SUPER SPECIALITY HOSPITAL,EROS GARDEN CHARMWOOD VILLAGE SURAJKUND ROAD FARIDABAD,Faridabad,Haryana,121009
471,Suraksha Eye Surgery Centre,"B-15,Ground Floor,Rana Pratap Bagh,Delhi",New Delhi,Delhi,110007
472,Surbhi Hospital Pvt Ltd,"KH-232, Golf Course Road, Village Morna,Sector-35,Noida-201301",Noida,Uttar Pradesh,201301
473,Surya Hospital,"383/11-C, East Azad Nagar, Krishna Nagar",New Delhi,Delhi,110051
474,SURYA HOSPITAL,"I.T.S.DENTAL COLLEGE CAMPUS PLOT NO 47,KNOWLEDGE PARK-3,GREATER NOIDA GAUTAM BUDDH NAGAR , Greater
Noida (West) , Gautam Buddha Nagar",Noida,Uttar Pradesh,201308
475,SURYA KIRAN HOSPITAL,"31, ROSHAN MANDI, NAJAFGARH, NEW DELHI-110043",New Delhi,Delhi,110043
476,Surya Ortho and Trauma Centre,"5R/5/1, NIT",Faridabad,Haryana,121001
477,Swasthik Hospital,"14, Gopal Nagar,Opposite Ashok Nagar,Tilak
Nagar",New Delhi,Delhi,110018
478,"SWASTIK
MULTISPECIALITY HOSPITAL",MOHNA ROAD BALLABGARH,Ballabgarh,Haryana,121004
479,Talwar Medical Centre,"M  139, Greater Kailsh II",New Delhi,Delhi,110048
480,Tarak Hospital India Pvt Ltd,"C-7,Jai Bharat Enclave,Dwarka More,Delhi- 110059",New Delhi,Delhi,110059
481,Tewari Eye Centre,"HOSPITAL CUM RES. 699,SECTOR-5 VAISHALI",Ghaziabad,Uttar Pradesh,201005
482,"THE HEALING TOUCH EYE
CENTRE","C2/390, Janak Puri, New Delhi",New Delhi,Delhi,110018
483,THE SIGNATURE ADVANCED SUPER SPECIALITY HOSPITAL,"Sector-37D(BPTP), Dwarka Expressway, Gurugram Basai",Gurugram,Haryana,122001
484,Tirath Ram Hospitals Pvt. Ltd.,"166/20,Basai Road,Near Model Town,Gurugram-
122001",Gurugram,Haryana,122001
485,Tirath Ram Shah Charitable Hospital,"2, Battary Lane, Rajpur Road, Near Tis Hazari Court",New Delhi,Delhi,110054
486,Tirupati Eye Centre,"C-53C,Sector-33,Noida-201301",Noida,Uttar Pradesh,201301
487,Tirupati Stone Centre  Hospital,"6 Gagan Vihar, Near Karkari More",New Delhi,Delhi,110051
488,TOMAR MULTISPECIALITY HOSPITAL,"Plot no. 35, Gali No.-2, Partap Vihar -1 , Kirari , Nangloi, New Delhi",New Delhi,Delhi,110041
489,"Trinity Sunrise Healthcare Pvt
Ltd","F1, Kalindi Colony, Near Maharani Bagh, New
Delhi",New Delhi,Delhi,110065
490,"TRIPATHI HOSPITAL AND
TRAUMA CENTER","E-14 SEC 9 NEW VIJAY NAGAR Near rajkiya
balkar inter college",Ghaziabad,Uttar Pradesh,201009
491,U K Nursing Home,"M-1,vikas puri,",New Delhi,Delhi,110018
492,"Uma Sanjeevani Health Centre
Pvt Ltd","1,Dakshin Marg,DLF City,Phase  II",Gurugram,Haryana,122002
493,Umkal Healthcare Pvt. Ltd.,"H  Block,Opp.Chancellor Club, Palam Vihar",Gurugram,Haryana,122017
494,"Umkal Hospital And M.P. Heart
Research Institute","A-520,Sushant Lok1",Gurugram,Haryana,122001
495,Universal Hospital,"Bye Pass Road,Molarband Extn. Badarpur New Delhi-110044",New Delhi,Delhi,110044
496,Uttam Hospital,E - 230 Sector - 9,Ghaziabad,Uttar Pradesh,201001
497,Vardaan Hospital,"3E-1,N.I.T Faridabad-121001",Faridabad,Haryana,121001
498,Vasundhara Hospital,"Near Atal Chowk,NH-1,Sector-15,Vasundhara- 201012",Ghaziabad,Uttar Pradesh,201012
499,VEDANTA NETRALYA GHAZIABAD,"VEDANTA C- 16  RDC RAJ NAGAR GHAZIABAD NEAR BIKANER OPPOSITE
YES BANK",Ghaziabad,Uttar Pradesh,201002
500,VEDANTAA HOSPITAL,"B-5,CENTRAL GREEN,NEAR B K CHOWK,NIT FARIDABAD",Faridabad,Haryana,121001
501,"VEDIC HOSPITAL
GURUGRAM","Sec-10/10A Chowk (L. C. Umanng Bhardwaj
Chowk),Main Pataudi Road,",Gurugram,Haryana,122001
502,Venkateshwar Hospital,"Sector 18A, Dwarka, New Delhi-110075",New Delhi,Delhi,110075
503,Venu Eye Insititute,"1/13,Sheikh Sarai,phase II",New Delhi,Delhi,110017
504,Viaan Eye And Retina Centre,"VG4 Besateck Square Mall,Sector 57, Gurgaon Haryana-122413",Gurugram,Haryana,122413
505,VIKAS HOSPITAL PVT LTD,"1629-H, THANA ROAD, NAJAFGARH",New Delhi,Delhi,110043
506,"Vimhans Institute Of Mental
Health And Neurosciences","No. 1 Institutional Area, Nehru Nagar",New Delhi,Delhi,110065
507,Vinayak Hospital,"Plot No-2 Main Road, Opposite Shakti Nagar Telephone Exchange, Derawal Nagar, Opposite Model Town",New Delhi,Delhi,110009
508,Vinayak Hospital,"NH-1,Sector-27,Atta Market",Noida,Uttar Pradesh,201301
509,Virmani Hospital Pvt Ltd,"Plot-No-08 Commercial Complex, Mayur Vihar Phase-2",New Delhi,Delhi,110091
510,VISION EYE CENTRE,"12/27, Near Arya Samaj Mandir, Patel Road, West Patel Nagar , Delhi , Central Delhi , Delhi- 110008",New Delhi,Delhi,110008
511,Vision Eye Hospital,"F- 24/136,Sector  - 7,Rohini",New Delhi,Delhi,110085
512,VISION PLUS EYE CENTRE,"Kisan Tower FF and SF, Golf Marg, Hoshiarpur, Sector-51,Noida , Uttar Pradesh , 201307",Noida,Uttar Pradesh,201307
513,Visitech Eye Center,"Plot No.-2. Pocket 1, Jasola Vihar, New Delhi-
110025",New Delhi,Delhi,110025
514,"VISITECH EYE CENTER
SOUTH EX","A-10, South Extension Part-2, new Delhi-110049",New Delhi,Delhi,110049
515,Visitech Hospital Pvt. Ltd,"R-13, Greater Kailash-I",New Delhi,Delhi,110048
516,W Pratiksha Hospital,"Golf Course Extension Road, Sector-56,
Gurgaon(Haryana)-122002",Gurugram,Haryana,122002
517,WALIA NURSING AND MATERNITY HOME,"G- 60, Vikas Marg, Laxmi Nagar, delhi-110092, opposite metro Pillar No.40 ",New Delhi,Delhi,110092
518,Yashoda Hospital,"III-M,Nehru Nagar",Ghaziabad,Uttar Pradesh,201001
519,Yashoda Super Speciality Hospital,"H-1,Kaushambhi",Ghaziabad,Uttar Pradesh,201010
520,"YASHODA SUPERSPECIALITY HOSPITAL AND CANCER
INSTITUTE",B 1 AND 2 SECTOR 23 SANJAY NAGAR GHAZIABAD,Ghaziabad,Uttar Pradesh,201003
521,YASHROOP HOSPITAL,"12-P, SECTOR-9 ",Gurugram,Haryana,122001
522,YATHARTH SUPER SPECIALITY HOSPITALS,"HO-01, Sector-1, Greater Noida (West) , Greater Noida (West) , Gautam Buddha Nagar","Gautam Buddha
Nagar(Noida)",Uttar Pradesh,201306
523,YATHARTH WELLNESS HOSPITAL and TRAUMA CENTRE,"No. 32, Omega - 1 Near Senior Citizen Apartment",Noida,Uttar Pradesh,201308
524,YATHARTH WELLNESS SUPERSPECILITY HOSPITAL and HEART CENTRE,"Plot No-01 Sector-110, Noida-201304",Noida,Uttar Pradesh,201304
525,Zenith Hospital Pvt Ltd,"187/1 Near Punjabi Dharamshala and 110 Near Bank of Baroda,Yadav Colony,Mohana
Road,Ballabgarh-121004",Ballabgarh,Haryana,121004
